{"type": "FeatureCollection", "features": [{"type": "Feature", "properties": {"norad_id": 22675, "name": "COSMOS 2251", "group": "cosmos-2251-debris", "lat": -62.096725903047655, "lon": 179.34176667528737, "alt_km": 804.2275658367234, "timestamp": "2025-12-06T20:37:56.467703+00:00", "meta": {"OBJECT_NAME": "COSMOS 2251", "OBJECT_ID": "1993-036A", "EPOCH": "2025-12-06T11:06:32.435424", "MEAN_MOTION": 14.33201878, "ECCENTRICITY": 0.00237685, "INCLINATION": 74.0393, "RA_OF_ASC_NODE": 327.3529, "ARG_OF_PERICENTER": 51.5868, "MEAN_ANOMALY": 308.7413, "EPHEMERIS_TYPE": 0, "CLASSIFICATION_TYPE": "U", "NORAD_CAT_ID": 22675, "ELEMENT_SET_NO": 999, "REV_AT_EPOCH": 69683, "BSTAR": 9.9744858e-05, "MEAN_MOTION_DOT": 2.49e-06, "MEAN_MOTION_DDOT": 0}, "tle": {"line1": "1 22675U 93036A   25340.46287541  .00000249  00000+0  99745-4 0  9996", "line2": "2 22675  74.0393 327.3529 0023768  51.5868 308.7413 14.33201878696835"}}, "geometry": {"type": "Point", "coordinates": [179.34176667528737, -62.096725903047655]}}, {"type": "Feature", "properties": {"norad_id": 33757, "name": "COSMOS 2251 DEB", "group": "cosmos-2251-debris", "lat": -57.53525121899068, "lon": -52.392889474536474, "alt_km": 782.9399689684888, "timestamp": "2025-12-06T20:37:56.467727+00:00", "meta": {"OBJECT_NAME": "COSMOS 2251 DEB", "OBJECT_ID": "1993-036E", "EPOCH": "2025-12-06T11:36:05.298624", "MEAN_MOTION": 14.32578596, "ECCENTRICITY": 0.00150161, "INCLINATION": 74.0366, "RA_OF_ASC_NODE": 335.032, "ARG_OF_PERICENTER": 349.5029, "MEAN_ANOMALY": 169.495, "EPHEMERIS_TYPE": 0, "CLASSIFICATION_TYPE": "U", "NORAD_CAT_ID": 33757, "ELEMENT_SET_NO": 999, "REV_AT_EPOCH": 87906, "BSTAR": 8.556433e-05, "MEAN_MOTION_DOT": 2.06e-06, "MEAN_MOTION_DDOT": 0}, "tle": {"line1": "1 33757U 93036E   25340.48339466  .00000206  00000+0  85564-4 0  9992", "line2": "2 33757  74.0366 335.0320 0015016 349.5029 169.4950 14.32578596879068"}}, "geometry": {"type": "Point", "coordinates": [-52.392889474536474, -57.53525121899068]}}, {"type": "Feature", "properties": {"norad_id": 33758, "name": "COSMOS 2251 DEB", "group": "cosmos-2251-debris", "lat": -21.71753602712685, "lon": 52.65501172397715, "alt_km": 725.7223894225608, "timestamp": "2025-12-06T20:37:56.467742+00:00", "meta": {"OBJECT_NAME": "COSMOS 2251 DEB", "OBJECT_ID": "1993-036F", "EPOCH": "2025-12-06T10:35:31.074432", "MEAN_MOTION": 14.51535918, "ECCENTRICITY": 0.00175334, "INCLINATION": 74.0283, "RA_OF_ASC_NODE": 226.8924, "ARG_OF_PERICENTER": 294.1122, "MEAN_ANOMALY": 243.4054, "EPHEMERIS_TYPE": 0, "CLASSIFICATION_TYPE": "U", "NORAD_CAT_ID": 33758, "ELEMENT_SET_NO": 999, "REV_AT_EPOCH": 88213, "BSTAR": 0.0015838793, "MEAN_MOTION_DOT": 6.326e-05, "MEAN_MOTION_DDOT": 0}, "tle": {"line1": "1 33758U 93036F   25340.44133188  .00006326  00000+0  15839-2 0  9997", "line2": "2 33758  74.0283 226.8924 0017533 294.1122 243.4054 14.51535918882131"}}, "geometry": {"type": "Point", "coordinates": [52.65501172397715, -21.71753602712685]}}, {"type": "Feature", "properties": {"norad_id": 33760, "name": "COSMOS 2251 DEB", "group": "cosmos-2251-debris", "lat": 55.46542095904465, "lon": 87.6609097845344, "alt_km": 766.8742897482916, "timestamp": "2025-12-06T20:37:56.467754+00:00", "meta": {"OBJECT_NAME": "COSMOS 2251 DEB", "OBJECT_ID": "1993-036H", "EPOCH": "2025-12-06T13:55:39.254880", "MEAN_MOTION": 14.35666131, "ECCENTRICITY": 0.00196234, "INCLINATION": 74.0318, "RA_OF_ASC_NODE": 292.7604, "ARG_OF_PERICENTER": 32.8312, "MEAN_ANOMALY": 84.6267, "EPHEMERIS_TYPE": 0, "CLASSIFICATION_TYPE": "U", "NORAD_CAT_ID": 33760, "ELEMENT_SET_NO": 999, "REV_AT_EPOCH": 88036, "BSTAR": 0.00021786915, "MEAN_MOTION_DOT": 6.04e-06, "MEAN_MOTION_DDOT": 0}, "tle": {"line1": "1 33760U 93036H   25340.58031545  .00000604  00000+0  21787-3 0  9992", "line2": "2 33760  74.0318 292.7604 0019623  32.8312  84.6267 14.35666131880368"}}, "geometry": {"type": "Point", "coordinates": [87.6609097845344, 55.46542095904465]}}, {"type": "Feature", "properties": {"norad_id": 33761, "name": "COSMOS 2251 DEB", "group": "cosmos-2251-debris", "lat": -73.03010151740907, "lon": 152.78931656582836, "alt_km": 754.2379770279867, "timestamp": "2025-12-06T20:37:56.467766+00:00", "meta": {"OBJECT_NAME": "COSMOS 2251 DEB", "OBJECT_ID": "1993-036J", "EPOCH": "2025-12-04T21:04:01.127712", "MEAN_MOTION": 14.42504735, "ECCENTRICITY": 0.0022795, "INCLINATION": 74.037, "RA_OF_ASC_NODE": 266.7483, "ARG_OF_PERICENTER": 348.175, "MEAN_ANOMALY": 68.3837, "EPHEMERIS_TYPE": 0, "CLASSIFICATION_TYPE": "U", "NORAD_CAT_ID": 33761, "ELEMENT_SET_NO": 999, "REV_AT_EPOCH": 88121, "BSTAR": 0.0010906, "MEAN_MOTION_DOT": 3.601e-05, "MEAN_MOTION_DDOT": 0}, "tle": {"line1": "1 33761U 93036J   25338.87779083  .00003601  00000+0  10906-2 0  9998", "line2": "2 33761  74.0370 266.7483 0022795 348.1750  68.3837 14.42504735881212"}}, "geometry": {"type": "Point", "coordinates": [152.78931656582836, -73.03010151740907]}}, {"type": "Feature", "properties": {"norad_id": 33762, "name": "COSMOS 2251 DEB", "group": "cosmos-2251-debris", "lat": 70.49599044704394, "lon": 86.88831018270801, "alt_km": 770.0166195409693, "timestamp": "2025-12-06T20:37:56.467778+00:00", "meta": {"OBJECT_NAME": "COSMOS 2251 DEB", "OBJECT_ID": "1993-036K", "EPOCH": "2025-12-06T09:08:19.193280", "MEAN_MOTION": 14.33660717, "ECCENTRICITY": 0.00147464, "INCLINATION": 74.0413, "RA_OF_ASC_NODE": 321.6531, "ARG_OF_PERICENTER": 24.9914, "MEAN_ANOMALY": 125.456, "EPHEMERIS_TYPE": 0, "CLASSIFICATION_TYPE": "U", "NORAD_CAT_ID": 33762, "ELEMENT_SET_NO": 999, "REV_AT_EPOCH": 87956, "BSTAR": 9.8871008e-05, "MEAN_MOTION_DOT": 2.48e-06, "MEAN_MOTION_DDOT": 0}, "tle": {"line1": "1 33762U 93036K   25340.38077770  .00000248  00000+0  98871-4 0  9995", "line2": "2 33762  74.0413 321.6531 0014746  24.9914 125.4560 14.33660717879560"}}, "geometry": {"type": "Point", "coordinates": [86.88831018270801, 70.49599044704394]}}, {"type": "Feature", "properties": {"norad_id": 33764, "name": "COSMOS 2251 DEB", "group": "cosmos-2251-debris", "lat": 58.67342590793942, "lon": 75.45736620951351, "alt_km": 765.9089633490985, "timestamp": "2025-12-06T20:37:56.467790+00:00", "meta": {"OBJECT_NAME": "COSMOS 2251 DEB", "OBJECT_ID": "1993-036M", "EPOCH": "2025-12-06T14:13:05.194272", "MEAN_MOTION": 14.39489513, "ECCENTRICITY": 0.00241775, "INCLINATION": 74.0345, "RA_OF_ASC_NODE": 284.008, "ARG_OF_PERICENTER": 250.8218, "MEAN_ANOMALY": 282.2163, "EPHEMERIS_TYPE": 0, "CLASSIFICATION_TYPE": "U", "NORAD_CAT_ID": 33764, "ELEMENT_SET_NO": 999, "REV_AT_EPOCH": 88068, "BSTAR": 0.0007233151, "MEAN_MOTION_DOT": 2.236e-05, "MEAN_MOTION_DDOT": 0}, "tle": {"line1": "1 33764U 93036M   25340.59242123  .00002236  00000+0  72332-3 0  9998", "line2": "2 33764  74.0345 284.0080 0024177 250.8218 282.2163 14.39489513880688"}}, "geometry": {"type": "Point", "coordinates": [75.45736620951351, 58.67342590793942]}}, {"type": "Feature", "properties": {"norad_id": 33765, "name": "COSMOS 2251 DEB", "group": "cosmos-2251-debris", "lat": -71.76359531471286, "lon": 65.7585250778472, "alt_km": 500.6106187840023, "timestamp": "2025-12-06T20:37:56.467801+00:00", "meta": {"OBJECT_NAME": "COSMOS 2251 DEB", "OBJECT_ID": "1993-036N", "EPOCH": "2025-12-06T14:57:00.238752", "MEAN_MOTION": 15.09441585, "ECCENTRICITY": 0.00668381, "INCLINATION": 74.0092, "RA_OF_ASC_NODE": 185.748, "ARG_OF_PERICENTER": 278.9954, "MEAN_ANOMALY": 136.3252, "EPHEMERIS_TYPE": 0, "CLASSIFICATION_TYPE": "U", "NORAD_CAT_ID": 33765, "ELEMENT_SET_NO": 999, "REV_AT_EPOCH": 89526, "BSTAR": 0.0034253547, "MEAN_MOTION_DOT": 0.00058191, "MEAN_MOTION_DDOT": 0}, "tle": {"line1": "1 33765U 93036N   25340.62291943  .00058191  00000+0  34254-2 0  9998", "line2": "2 33765  74.0092 185.7480 0066838 278.9954 136.3252 15.09441585895260"}}, "geometry": {"type": "Point", "coordinates": [65.7585250778472, -71.76359531471286]}}, {"type": "Feature", "properties": {"norad_id": 33766, "name": "COSMOS 2251 DEB", "group": "cosmos-2251-debris", "lat": -68.42812323292486, "lon": 11.456030872744195, "alt_km": 786.4259050987384, "timestamp": "2025-12-06T20:37:56.467813+00:00", "meta": {"OBJECT_NAME": "COSMOS 2251 DEB", "OBJECT_ID": "1993-036P", "EPOCH": "2025-12-06T14:25:24.367872", "MEAN_MOTION": 14.34907487, "ECCENTRICITY": 0.00638563, "INCLINATION": 74.1851, "RA_OF_ASC_NODE": 146.1262, "ARG_OF_PERICENTER": 351.2169, "MEAN_ANOMALY": 8.786, "EPHEMERIS_TYPE": 0, "CLASSIFICATION_TYPE": "U", "NORAD_CAT_ID": 33766, "ELEMENT_SET_NO": 999, "REV_AT_EPOCH": 87657, "BSTAR": 0.00089958131, "MEAN_MOTION_DOT": 2.592e-05, "MEAN_MOTION_DDOT": 0}, "tle": {"line1": "1 33766U 93036P   25340.60097648  .00002592  00000+0  89958-3 0  9999", "line2": "2 33766  74.1851 146.1262 0063856 351.2169   8.7860 14.34907487876579"}}, "geometry": {"type": "Point", "coordinates": [11.456030872744195, -68.42812323292486]}}, {"type": "Feature", "properties": {"norad_id": 33768, "name": "COSMOS 2251 DEB", "group": "cosmos-2251-debris", "lat": -1.4016296736291654, "lon": -131.0437570232141, "alt_km": 805.8268233321915, "timestamp": "2025-12-06T20:37:56.467824+00:00", "meta": {"OBJECT_NAME": "COSMOS 2251 DEB", "OBJECT_ID": "1993-036R", "EPOCH": "2025-12-06T15:24:09.958752", "MEAN_MOTION": 13.58447085, "ECCENTRICITY": 0.03660098, "INCLINATION": 74.0687, "RA_OF_ASC_NODE": 229.7082, "ARG_OF_PERICENTER": 28.7889, "MEAN_ANOMALY": 346.6803, "EPHEMERIS_TYPE": 0, "CLASSIFICATION_TYPE": "U", "NORAD_CAT_ID": 33768, "ELEMENT_SET_NO": 999, "REV_AT_EPOCH": 83213, "BSTAR": 0.00062137973, "MEAN_MOTION_DOT": 6.81e-06, "MEAN_MOTION_DDOT": 0}, "tle": {"line1": "1 33768U 93036R   25340.64178193  .00000681  00000+0  62138-3 0  9998", "line2": "2 33768  74.0687 229.7082 0366009  28.7889 346.6803 13.58447085832139"}}, "geometry": {"type": "Point", "coordinates": [-131.0437570232141, -1.4016296736291654]}}]}